103P/Hartley,e,13.6087,219.7451,181.2873,3.475421,0.1521223,0.69362677,287.1991,06/21.0/2022,2000,g  8.5,8.0
# From MPEC 2022-M21
104P/Kowal,e,5.7018,207.2080,227.2522,3.207971,0.1715373,0.66551146,27.5102,06/21.0/2022,2000,g 16.0,4.0
# From MPC109147
105P/Singer Brewster,e,9.1686,192.3986,46.4673,3.468643,0.1525685,0.40899513,215.4980,06/21.0/2022,2000,g 11.5,6.0
# From MPEC 2022-GA9
106P/Schuster,e,19.5361,48.8783,353.6917,3.764091,0.1349628,0.59386110,41.3246,06/21.0/2022,2000,g 14.0,4.8
# From MPEC 2015-M77
107P/Wilson-Harrington,e,2.7993,266.7790,95.4395,2.624993,0.2317458,0.63175425,345.0146,06/21.0/2022,2000,g  9.0,4.0
# From MPEC 2022-GA9
108P/Ciffreo,e,11.4361,50.2849,354.4444,3.739477,0.1362975,0.55599277,38.6900,06/21.0/2022,2000,g  8.0,12.0
# From  105, 420
109P/Swift-Tuttle,e,113.9000,139.1069,152.9928,26.17733,0.0073590,0.96263983,79.3717,06/21.0/2022,2000,g  4.0,6.0
# From MPEC 2022-L66
110P/Hartley,e,11.7053,287.5321,167.4481,3.603287,0.1440973,0.31849909,35.4024,06/21.0/2022,2000,g  1.0,12.0
# From MPC 75718
111P/Helin-Roman-Crockett,e,4.2261,89.7606,1.0018,4.149586,0.1165996,0.10654206,43.1747,06/21.0/2022,2000,g  5.0,8.0
# From MPEC 2021-S45
112P/Urata-Niijima,e,24.2078,31.8322,21.4674,3.524873,0.1489323,0.59028284,128.6365,06/21.0/2022,2000,g 14.0,6.0
# From MPEC 2022-D36
113P/Spitaler,e,5.2901,306.6767,115.5158,3.690733,0.1390065,0.41971204,2.7201,06/21.0/2022,2000,g 13.5,4.0
# From MPEC 2022-K19
114P/Wiseman-Skiff,e,18.2807,271.0339,172.7461,3.543737,0.1477447,0.55509109,131.3216,06/21.0/2022,2000,g 11.5,6.0
# From MPEC 2021-UA9
115P/Maury,e,11.6772,176.0064,120.9957,4.271924,0.1116269,0.51827897,77.1948,06/21.0/2022,2000,g 10.5,6.0
# From MPEC 2022-M21
116P/Wild,e,3.6034,20.9801,173.2929,3.490452,0.1511408,0.37056417,356.0821,06/21.0/2022,2000,g  2.5,10.0
# From MPEC 2022-M21
117P/Helin-Roman-Alu,e,8.7040,58.8416,222.9466,4.082730,0.1194753,0.25549511,357.9924,06/21.0/2022,2000,g  2.5,8.0
# From MPEC 2021-TD0
118P/Shoemaker-Levy,e,10.0944,142.0884,314.8316,3.347192,0.1609471,0.45352634,334.8151,06/21.0/2022,2000,g 12.0,4.0
# From MPEC 2021-UA9
119P/Parker-Hartley,e,7.3934,104.5714,322.0514,3.804175,0.1328352,0.38819298,353.0982,06/21.0/2022,2000,g  3.5,8.0
# From MPEC 2022-CN4
120P/Mueller,e,8.4900,358.6710,36.6205,3.963947,0.1248856,0.37479363,51.1582,06/21.0/2022,2000,g 12.0,4.0
# From MPEC 2021-Y10
121P/Shoemaker-Holt,e,20.1649,94.1155,11.5482,4.583609,0.1004368,0.18602699,322.6331,06/21.0/2022,2000,g  6.5,8.0
# From MPC 75718
122P/de Vico,e,85.3315,79.6223,12.9941,17.62365,0.0133217,0.96228291,130.3233,06/21.0/2022,2000,g  7.5,5.2
# From MPEC 2021-F20
123P/West-Hartley,e,15.2841,45.9506,104.0997,3.878912,0.1290147,0.44492333,159.3077,06/21.0/2022,2000,g 12.2,4.0
# From MPEC 2022-K19
124P/Mrkos,e,31.7351,0.1006,184.9118,3.343892,0.1611854,0.49857500,126.7455,06/21.0/2022,2000,g 13.5,2.8
# From MPEC 2015-M77
125P/Spacewatch,e,9.9866,153.1463,87.2146,3.127110,0.1782335,0.51221628,248.5429,06/21.0/2022,2000,g  9.0,4.0
# From MPC 66205
126P/IRAS,e,45.8763,357.8728,356.5737,5.635767,0.0736673,0.69639820,332.0581,06/21.0/2022,2000,g  9.0,4.0
# From MPC 84321
127P/Holt-Olmstead,e,14.3003,13.6045,6.2991,3.455337,0.1534506,0.36008014,352.2494,06/21.0/2022,2000,g 11.0,6.0
# From MPC 89014
128P/Shoemaker-Holt,e,4.3696,214.3160,210.2587,4.489761,0.1036023,0.32146101,205.9455,06/21.0/2022,2000,g  8.5,4.0
# From MPEC 2022-K19
129P/Shoemaker-Levy,e,3.4422,184.8654,307.5065,4.286688,0.1110507,0.08453342,341.9491,06/21.0/2022,2000,g 11.0,4.0
# From MPEC 2022-ED3
130P/McNaught-Hughes,e,6.0625,70.1952,246.0769,3.383371,0.1583725,0.46127858,254.8965,06/21.0/2022,2000,g 10.0,6.0
# From MPC102101
131P/Mueller,e,7.3595,214.1466,179.0404,3.679408,0.1396488,0.34446757,173.5622,06/21.0/2022,2000,g 11.0,4.0
# From MPEC 2022-GA9
132P/Helin-Roman-Alu,e,5.3827,173.9955,216.3629,3.886268,0.1286486,0.56465188,28.2851,06/21.0/2022,2000,g 11.0,6.0
# From MPC 94676
133P/Elst-Pizarro,e,1.3896,160.0982,131.8979,3.165438,0.1750062,0.15658195,239.4183,06/21.0/2022,2000,g 15.4,2.0
# From MPC 89012
134P/Kowal-Vavrova,e,4.3355,202.0557,18.8713,6.263302,0.0628781,0.58526170,186.0500,06/21.0/2022,2000,g 11.5,4.0
# From MPEC 2022-L66
135P/Shoemaker-Levy,e,6.0633,213.0256,22.3250,3.800668,0.1330192,0.29483299,9.9280,06/21.0/2022,2000,g  7.0,8.0
# From MPEC 2022-K19
136P/Mueller,e,9.4242,137.4435,225.0139,4.190949,0.1148776,0.29330469,253.5704,06/21.0/2022,2000,g 11.0,4.0
# From MPEC 2022-K19
137P/Shoemaker-Levy,e,4.8561,232.9773,141.1056,4.521002,0.1025303,0.57382614,131.7100,06/21.0/2022,2000,g 11.0,4.0
# From MPEC 2016-U66
138P/Shoemaker-Levy,e,10.0903,309.3084,95.5532,3.620936,0.1430450,0.53107486,163.7194,06/21.0/2022,2000,g 15.0,6.0
# From MPEC 2020-HN5
139P/Vaisala-Oterma,e,2.3357,242.1461,165.7249,4.519980,0.1025650,0.24752280,169.5552,06/21.0/2022,2000,g  9.5,4.0
# From MPEC 2015-E14
140P/Bowell-Skiff,e,3.8434,343.2327,172.7854,6.420834,0.0605783,0.69264088,152.2432,06/21.0/2022,2000,g 11.5,6.0
# From MPEC 2022-K19
141P/Machholz,e,13.9492,241.8135,153.5765,3.057483,0.1843563,0.73593656,101.6940,06/21.0/2022,2000,g 12.0,12.0
# From MPEC 2021-Y10
142P/Ge-Wang,e,12.2514,175.9319,173.9829,4.999012,0.0881816,0.49719920,35.6514,06/21.0/2022,2000,g  8.5,6.0
# From MPEC 2021-W31
143P/Kowal-Mrkos,e,4.7061,245.0935,320.3244,4.276689,0.1114404,0.41189089,168.0836,06/21.0/2022,2000,g 13.5,2.0
# From MPC104795
144P/Kushida,e,3.9310,243.0467,216.3527,3.825820,0.1317095,0.63523002,283.1249,06/21.0/2022,2000,g  8.5,8.0
# From MPC108598
145P/Shoemaker-Levy,e,11.2788,26.7939,10.2482,4.136741,0.1171430,0.54209695,205.2801,06/21.0/2022,2000,g 13.5,4.0
# From MPC100284
146P/Shoemaker-LINEAR,e,23.1124,53.3791,316.9971,4.030515,0.1218045,0.64741040,265.4288,06/21.0/2022,2000,g 15.0,4.0
# From MPC 75720
147P/Kushida-Muramatsu,e,2.3090,92.0816,348.1297,4.035566,0.1215759,0.21955367,295.2904,06/21.0/2022,2000,g 14.0,4.0
# From MPEC 2022-CN4
148P/Anderson-LINEAR,e,3.6581,89.2112,8.0302,3.617478,0.1432502,0.54977595,1.0486,06/21.0/2022,2000,g 16.0,2.0
# From MPC 75720
149P/Mueller,e,34.4009,144.0694,31.0580,4.131127,0.1173819,0.32306875,165.4534,06/21.0/2022,2000,g  8.0,8.0
# From MPEC 2021-W31
150P/LONEOS,e,18.5118,272.2301,245.7376,3.877679,0.1290762,0.54836860,278.6112,06/21.0/2022,2000,g 13.5,4.0
# From MPEC 2022-K19
151P/Helin,e,4.7287,143.1575,216.0808,5.762956,0.0712420,0.57382257,174.0656,06/21.0/2022,2000,g 10.0,6.0
# From MPEC 2022-M21
152P/Helin-Lawrence,e,9.8805,91.8580,163.9683,4.476378,0.1040672,0.30858650,16.4636,06/21.0/2022,2000,g 11.5,4.0
# From MPC 46101
153P/Ikeya-Zhang,e,28.0124,93.3387,34.8642,50.44495,0.0027509,0.98968522,0.0000,03/03.0697/2002,2000,g  9.0,4.0
# From MPEC 2022-K19
154P/Brewington,e,17.6323,343.0383,47.8751,4.799221,0.0937450,0.67598838,292.3618,06/21.0/2022,2000,g  2.5,12.0
# From MPEC 2021-F20
155P/Shoemaker,e,6.3988,97.1795,14.5743,6.571798,0.0585030,0.72630700,55.5241,06/21.0/2022,2000,g 13.8,4.0
# From MPEC 2022-GA9
156P/Russell-LINEAR,e,17.2666,35.3478,0.4580,3.461720,0.1530263,0.61504422,88.7548,06/21.0/2022,2000,g 15.5,2.0
# From MPEC 2021-W31
157P/Tritton,e,12.4208,287.5487,155.0544,3.544229,0.1477139,0.55647358,348.0589,06/21.0/2022,2000,g 10.0,4.0
# From MPEC 2022-L66
158P/Kowal-LINEAR,e,7.7745,134.8653,182.0434,5.205570,0.0829854,0.07661740,25.4728,06/21.0/2022,2000,g  9.0,4.0
# From MPEC 2021-N06
159P/LONEOS,e,23.4761,54.9556,4.5575,5.852758,0.0696087,0.38225100,103.7460,06/21.0/2022,2000,g 10.0,4.0
# From MPEC 2022-K19
160P/LINEAR,e,15.6158,333.3603,12.7527,3.775932,0.1343284,0.52626966,125.1125,06/21.0/2022,2000,g 15.5,2.0
# From MPC 75721
161P/Hartley-IRAS,e,95.8019,1.5831,46.9980,7.720232,0.0459471,0.83519108,285.4967,06/21.0/2022,2000,g  8.5,6.0
# From MPEC 2022-M21
162P/SidingSpring,e,27.5604,30.8924,357.1690,3.091811,0.1812945,0.58309970,101.5373,06/21.0/2022,2000,g 12.0,4.0
# From MPEC 2021-S45
163P/NEAT,e,12.7119,102.0741,349.5646,3.765787,0.1348716,0.45222335,141.7343,06/21.0/2022,2000,g 14.5,4.0
# From MPEC 2021-F20
164P/Christensen,e,16.2636,88.2731,325.8465,3.655337,0.1410305,0.54063217,208.8629,06/21.0/2022,2000,g 11.0,4.0
# From MPC 75721
165P/LINEAR,e,15.8943,0.8725,125.8572,17.85429,0.0130644,0.61574541,105.4576,06/21.0/2022,2000,g 11.5,2.0
# From MPC 75722
166P/NEAT,e,15.3787,64.3834,321.5542,13.81441,0.0191958,0.38439938,140.6921,06/21.0/2022,2000,g  5.5,4.0
# From MPC 75722
167P/CINEOS,e,19.1116,295.7005,344.7369,16.23925,0.0150610,0.27077162,116.1506,06/21.0/2022,2000,g  9.5,2.0
# From MPC102101
168P/Hergenrother,e,21.6253,355.4519,15.0130,3.582363,0.1453616,0.62117068,152.6609,06/21.0/2022,2000,g 15.5,4.0
# From MPEC 2022-M21
169P/NEAT,e,11.2990,176.1068,218.0444,2.602169,0.2348015,0.76833717,355.6130,06/21.0/2022,2000,g 16.0,2.0
# From MPEC 2022-K19
170P/Christensen,e,10.1244,142.9231,225.5296,4.201983,0.1144254,0.30431258,325.2555,06/21.0/2022,2000,g 12.0,4.0
# From MPC102102
171P/Spahr,e,21.9401,101.6894,347.0485,3.554414,0.1470795,0.50186178,184.5582,06/21.0/2022,2000,g 13.5,4.0
# From MPEC 2022-C56
172P/Yeung,e,11.2258,30.8799,209.3479,4.215445,0.1138778,0.20483168,219.6183,06/21.0/2022,2000,g 13.0,4.0
# From MPEC 2022-K19
173P/Mueller,e,16.4909,100.3947,29.1551,5.707727,0.0722785,0.26118679,13.4812,06/21.0/2022,2000,g  7.5,4.0
# From MPC 92985
174P/Echeclus,e,4.3438,173.1916,163.2885,10.73452,0.0280240,0.45731098,73.2123,06/21.0/2022,2000,g  9.4,2.0
# From MPC114608
175P/Hergenrother,e,5.1190,115.5659,69.8804,3.588745,0.1449740,0.41042494,143.3972,06/21.0/2022,2000,g 14.0,4.0
# From MPC 89015
176P/LINEAR,e,0.2335,346.0935,34.3753,3.198960,0.1722625,0.19344208,333.5147,06/21.0/2022,2000,g 15.1,2.0
# From MPEC 2020-L06
177P/Barnard,e,31.1833,272.0566,60.4435,24.46690,0.0081440,0.95529762,46.9687,06/21.0/2022,2000,g 15.0,4.0
# From MPEC 2021-F20
178P/Hug-Bell,e,11.0873,102.8551,297.8131,3.632441,0.1423660,0.48232718,100.2477,06/21.0/2022,2000,g 14.6,4.0
# From MPEC 2022-C56
